{
  "norad_id": 68597,
  "name": "KUIPER-00300",
  "history": [
    {
      "epoch": "2026-04-09T12:07:31.227456Z",
      "apogee_km": 461.4599924717095,
      "perigee_km": 450.11977420150015,
      "latitude_deg": -3.4882672121118e-05,
      "longitude_deg": 129.47290483541386,
      "height_km": 460.17455720672416,
      "semi_major_axis_km": 6833.926883336605,
      "eccentricity": 0.0008297,
      "inclination_deg": 51.8667,
      "raan_deg": 149.1055,
      "arg_perigee_deg": 129.8474,
      "mean_anomaly_deg": 230.3243,
      "mean_motion_rev_day": 15.3672894
    }
  ]
}